{
  "type": "FeatureCollection",
  "features": [
    {
      "type": "Feature",
      "properties": {
        "norad_id": 54259,
        "name": "EUTELSAT 10B",
        "group": "eutelsat",
        "lat": -0.027467638788237565,
        "lon": 35.3431645497295,
        "alt_km": 35791.11268872034,
        "timestamp": "2025-12-06T20:37:55.731024+00:00",
        "meta_object_name": "EUTELSAT 10B",
        "meta_object_id": "2022-157A",
        "meta_epoch": "2025-12-06T11:59:51.663264",
        "meta_mean_motion": 1.00267497,
        "meta_eccentricity": 0.00010834,
        "meta_inclination": 0.0622,
        "meta_ra_of_asc_node": 103.1735,
        "meta_arg_of_pericenter": 79.93,
        "meta_mean_anomaly": 82.3904,
        "meta_ephemeris_type": 0,
        "meta_classification_type": "U",
        "meta_norad_cat_id": 54259,
        "meta_element_set_no": 999,
        "meta_rev_at_epoch": 1109,
        "meta_bstar": 0,
        "meta_mean_motion_dot": 7.5e-07,
        "meta_mean_motion_ddot": 0,
        "tle_line1": "1 54259U 22157A   25340.49990351  .00000075  00000+0  00000+0 0  9996",
        "tle_line2": "2 54259   0.0622 103.1735 0001083  79.9300  82.3904  1.00267497 11090"
      },
      "geometry": {
        "type": "Point",
        "coordinates": [
          35.3431645497295,
          -0.027467638788237565
        ]
      }
    },
    {
      "type": "Feature",
      "properties": {
        "norad_id": 59346,
        "name": "EUTELSAT 36D",
        "group": "eutelsat",
        "lat": 0.04465243082840321,
        "lon": 61.240714265931096,
        "alt_km": 35786.28406529849,
        "timestamp": "2025-12-06T20:37:55.731037+00:00",
        "meta_object_name": "EUTELSAT 36D",
        "meta_object_id": "2024-059A",
        "meta_epoch": "2025-12-05T21:12:21.661920",
        "meta_mean_motion": 1.00272563,
        "meta_eccentricity": 7.535e-05,
        "meta_inclination": 0.0214,
        "meta_ra_of_asc_node": 349.7189,
        "meta_arg_of_pericenter": 331.5769,
        "meta_mean_anomaly": 107.5891,
        "meta_ephemeris_type": 0,
        "meta_classification_type": "U",
        "meta_norad_cat_id": 59346,
        "meta_element_set_no": 999,
        "meta_rev_at_epoch": 620,
        "meta_bstar": 0,
        "meta_mean_motion_dot": 0,
        "meta_mean_motion_ddot": 0,
        "tle_line1": "1 59346U 24059A   25339.88358405  .00000000  00000+0  00000+0 0  9998",
        "tle_line2": "2 59346   0.0214 349.7189 0000753 331.5769 107.5891  1.00272563  6201"
      },
      "geometry": {
        "type": "Point",
        "coordinates": [
          61.240714265931096,
          0.04465243082840321
        ]
      }
    }
  ]
}